{"type":"FeatureCollection","bbox":[7.6,45.95,7.77,46.025],"features":[{"type":"Feature","properties":{"name":"Switzerland\u2013Italy border","osm_way_id":124641720,"source_url":"https://www.openstreetmap.org/way/124641720","source":"OpenStreetMap contributors","osm_source_tag":"swissBOUNDARIES3D swisstopo 2011","osm_snapshot":"2026-07-28T02:16:18Z","license":"ODbL 1.0","clipped_to_bbox":[7.6,45.95,7.77,46.025]},"geometry":{"type":"LineString","coordinates":[[7.6086883,45.9694116],[7.6084828,45.9693963],[7.6083853,45.969428],[7.6083502,45.9694117],[7.6081664,45.9694189],[7.6080013,45.9694707],[7.6077106,45.9695212],[7.6076716,45.9695594],[7.6075759,45.9695682],[7.6071626,45.969765],[7.6070745,45.9697839],[7.607013,45.9698395],[7.6067113,45.9699227],[7.606453,45.9699367],[7.6063473,45.9699228],[7.6059956,45.969974],[7.6051491,45.9699376],[7.605035,45.9699404],[7.6047253,45.9700741],[7.6043974,45.9702696],[7.6040006,45.9704059],[7.6034718,45.9703253],[7.603044,45.970151],[7.6027584,45.9701192],[7.6020832,45.9701335],[7.6015356,45.9701106],[7.6008575,45.9700164],[7.6004478,45.9700307],[7.6003671,45.9700081],[7.6000339,45.9700754],[7.6,45.9700753]]}},{"type":"Feature","properties":{"name":"Switzerland\u2013Italy border","osm_way_id":1248126041,"source_url":"https://www.openstreetmap.org/way/1248126041","source":"OpenStreetMap contributors","osm_source_tag":"swissBOUNDARIES3D swisstopo 2011","osm_snapshot":"2026-07-28T02:16:18Z","license":"ODbL 1.0","clipped_to_bbox":[7.6,45.95,7.77,46.025]},"geometry":{"type":"LineString","coordinates":[[7.7054059,45.95],[7.7051633,45.9501505],[7.7047975,45.9504971],[7.7045951,45.9505774],[7.7042311,45.9506342],[7.7040542,45.9505602],[7.7037335,45.9508713],[7.7034107,45.9509858],[7.702935,45.951341],[7.7029027,45.9515096],[7.702705,45.951704],[7.7017302,45.9520064],[7.7013222,45.9522981],[7.7006204,45.9524753],[7.7001808,45.9527522],[7.6996992,45.9533906],[7.6997693,45.9537408],[7.6994076,45.9538952],[7.6997212,45.9539937],[7.6996778,45.9540637],[7.6995057,45.9541407],[7.6993332,45.9541957],[7.6988215,45.9544984],[7.6979936,45.9546477],[7.6975543,45.9548025],[7.6972102,45.9546733],[7.6969004,45.9547448],[7.6966032,45.9549131],[7.6960532,45.954946],[7.6957981,45.9548113],[7.6955811,45.9548212],[7.6951882,45.9546622],[7.6948534,45.9547175],[7.6943824,45.9545907],[7.6940153,45.9546011],[7.6938708,45.9547072],[7.6932093,45.9546948],[7.6929577,45.9547979],[7.6923699,45.9546727],[7.6921765,45.9546609],[7.6920244,45.9547011],[7.6917801,45.954674],[7.6915505,45.9545883],[7.6915429,45.9546888],[7.6911689,45.9546735],[7.6910561,45.9546127],[7.6908806,45.9545957],[7.6906421,45.9544893],[7.6904973,45.9545409],[7.6903373,45.9545003],[7.6902176,45.9545705],[7.6899368,45.9546012],[7.6896743,45.9547511],[7.6887667,45.954924],[7.6881621,45.9549811],[7.6877891,45.9549854],[7.6870259,45.9550423],[7.6867591,45.9551299],[7.6856993,45.9556151],[7.6852347,45.9557875],[7.6849937,45.9559176],[7.6848204,45.9559677],[7.6845995,45.9561366],[7.6845959,45.9561645],[7.6843687,45.9562997],[7.6840433,45.9565512],[7.6838768,45.9565843],[7.6838163,45.9565461],[7.6835743,45.956618],[7.6835291,45.9565843],[7.6833354,45.9566729],[7.6831859,45.9566496],[7.6827408,45.9566732],[7.6824749,45.9567746],[7.6823677,45.9566658],[7.6821989,45.9566608],[7.6818863,45.9568427],[7.6816417,45.9567599],[7.6814136,45.9568202],[7.6811325,45.9569318],[7.6810151,45.9569986],[7.6807749,45.9572391],[7.6802372,45.9575449],[7.6797048,45.9577909],[7.6797457,45.9579791],[7.6794356,45.958092],[7.6790247,45.9583327],[7.678633,45.9585921],[7.678321,45.9588364],[7.6783256,45.9591714],[7.678139,45.9596167],[7.6782548,45.959943],[7.6783474,45.9600743],[7.6781965,45.9603453],[7.6780466,45.960444],[7.6778939,45.9607861],[7.6778554,45.9609466],[7.6780792,45.9614217],[7.6780894,45.9615285],[7.6780025,45.9615924],[7.6779265,45.9617112],[7.6777053,45.9619281],[7.677639,45.9620469],[7.6777093,45.9623411],[7.6776994,45.9624835],[7.6777736,45.962563],[7.6777485,45.9626606],[7.6776741,45.9627422],[7.6776783,45.9628874],[7.6776022,45.9630427],[7.6774786,45.9632036],[7.6775437,45.9633449],[7.6774424,45.9633978],[7.67734,45.9637485],[7.6771113,45.9639671],[7.6770759,45.9641925],[7.67727,45.9643509],[7.6773234,45.9647053],[7.6771022,45.9649329],[7.6770526,45.9650784],[7.6763498,45.9651546],[7.6760677,45.9652187],[7.6756704,45.9653671],[7.6754498,45.9655149],[7.675202,45.9656098],[7.6749774,45.9657302],[7.674757,45.9657849],[7.6742832,45.9662103],[7.6741491,45.9664189],[7.6738926,45.9666415],[7.6736923,45.9668563],[7.6737247,45.9671481],[7.6737702,45.9673025],[7.67383,45.9673673],[7.6738317,45.9675254],[7.6737466,45.9676911],[7.6737923,45.9678343],[7.6735797,45.9682166],[7.6735405,45.968505],[7.673423,45.9687007],[7.6726653,45.9693284],[7.6724915,45.9693366],[7.6723623,45.9693731],[7.6721641,45.9693442],[7.6712071,45.9696374],[7.6711195,45.9696337],[7.6708048,45.9697385],[7.6707164,45.9698166],[7.6705576,45.9698889],[7.6704438,45.9700852],[7.6703613,45.9705928],[7.6702398,45.9708153],[7.6699336,45.971069],[7.6697429,45.9713831],[7.6696167,45.9714189],[7.6694366,45.9716061],[7.6693172,45.9716896],[7.6690954,45.9721106],[7.6688599,45.9723721],[7.6688857,45.9724628],[7.6688258,45.9726038],[7.6686066,45.9728167],[7.6684992,45.9730996],[7.6684117,45.9731736],[7.6683632,45.9733976],[7.6682832,45.9735698],[7.6683147,45.973711],[7.6682695,45.9738171],[7.6668319,45.9740066],[7.6666833,45.9739818],[7.6663882,45.9740254],[7.6660952,45.9741175],[7.6659804,45.974176],[7.6658354,45.9741342],[7.665723,45.9741823],[7.665488,45.9743121],[7.6653153,45.9745911],[7.6651755,45.974753],[7.664984,45.9748074],[7.6648844,45.9750004],[7.6648002,45.9750793],[7.664726,45.9751211],[7.6645724,45.9750304],[7.6643695,45.9755324],[7.6642737,45.9756579],[7.66403,45.9757382],[7.6637619,45.9757874],[7.6634961,45.975797],[7.6632224,45.9758641],[7.6630103,45.9758542],[7.6593083,45.9763511],[7.6589759,45.9763655],[7.6587375,45.9764326],[7.6585946,45.9764203],[7.6585223,45.9764204],[7.658293,45.9764828],[7.6579182,45.9766091],[7.6578012,45.976671],[7.6577916,45.9766138],[7.6575912,45.9766109],[7.6574415,45.9766359],[7.657228,45.9765279],[7.6569975,45.9765625],[7.6565377,45.9762846],[7.6564084,45.9762626],[7.6562689,45.9762818],[7.6560889,45.9762257],[7.655883,45.9760683],[7.6557224,45.9761143],[7.6555733,45.976024],[7.6552896,45.9759028],[7.6551668,45.9759012],[7.6551581,45.975865],[7.655036,45.9758442],[7.6550099,45.9758178],[7.6550305,45.9757375],[7.6549902,45.9757327],[7.6549814,45.9756155],[7.6549115,45.9754412],[7.6548383,45.9753578],[7.6546917,45.9753296],[7.6546556,45.9752286],[7.6546037,45.9751661],[7.654543,45.9751385],[7.654522,45.9750636],[7.6542903,45.9747893],[7.6542494,45.9746776],[7.6540345,45.9745499],[7.6540111,45.9745044],[7.6538758,45.9744375],[7.6537053,45.9742802],[7.6533104,45.9742166],[7.6531876,45.9742384],[7.6530492,45.9742212],[7.6526701,45.9741171],[7.6525677,45.9741171],[7.6524327,45.974167],[7.6522742,45.9741449],[7.6522637,45.9741596],[7.6521102,45.9741195],[7.6521117,45.9741687],[7.651599,45.9742703],[7.6515506,45.9742063],[7.6512392,45.9741911],[7.6511268,45.9742225],[7.6510616,45.9742097],[7.6509972,45.9742333],[7.6509073,45.9742102],[7.6507579,45.9742342],[7.6504995,45.9741732],[7.6503141,45.9741577],[7.6500801,45.9740808],[7.649933,45.9740867],[7.6496317,45.9740072],[7.649544,45.9740338],[7.6493594,45.9739014],[7.6493039,45.9739029],[7.6491634,45.9738212],[7.6490536,45.9737791],[7.6489364,45.9738004],[7.6487369,45.9736017],[7.6486439,45.9735612],[7.6485447,45.9735697],[7.6484897,45.9736177],[7.6484455,45.9735403],[7.648177,45.9733649],[7.6480827,45.9732046],[7.6479734,45.9731335],[7.6478148,45.9730917],[7.6476333,45.9730063],[7.6471976,45.9728927],[7.6471985,45.9729099],[7.6469877,45.9728762],[7.6461343,45.9726385],[7.6460395,45.9725385],[7.6457466,45.972432],[7.6457006,45.9723319],[7.645105,45.9719088],[7.6449359,45.9717117],[7.6448612,45.971674],[7.6443053,45.9716195],[7.6441136,45.9716661],[7.6437798,45.9715175],[7.6437371,45.9713529],[7.6436896,45.9713017],[7.6433652,45.9711909],[7.6430105,45.9711239],[7.6424759,45.9709512],[7.6422553,45.9709029],[7.6420614,45.9707894],[7.6419451,45.9708156],[7.6418931,45.9707904],[7.6418412,45.9708078],[7.6417401,45.9707285],[7.641484,45.9706964],[7.6412741,45.9706953],[7.6410987,45.9706374],[7.6410867,45.9705951],[7.6409313,45.970598],[7.6408612,45.9705385],[7.6404552,45.9704807],[7.6403066,45.9703735],[7.6401974,45.9703288],[7.6401827,45.9702859],[7.6397601,45.9702335],[7.6396228,45.9701372],[7.639538,45.9701115],[7.6389219,45.9701397],[7.6385502,45.9702184],[7.6384783,45.970194],[7.6383923,45.9702291],[7.6383706,45.9701552],[7.6382731,45.9701537],[7.6380929,45.9701188],[7.6374682,45.9700446],[7.6372254,45.9700323],[7.6370941,45.9700547],[7.6366836,45.9701586],[7.6361378,45.9702335],[7.6354668,45.9703132],[7.635288,45.9703143],[7.6351775,45.9702721],[7.6350913,45.970317],[7.6348427,45.9703241],[7.6344668,45.9703698],[7.6339229,45.9704445],[7.6332983,45.9704791],[7.6327159,45.9704811],[7.6325013,45.9704736],[7.6323628,45.9703977],[7.6322996,45.9702993],[7.6317898,45.9704629],[7.6316869,45.9704568],[7.6315941,45.970493],[7.6314052,45.9705036],[7.631252,45.9705695],[7.631105,45.9705931],[7.6309371,45.9706618],[7.6306216,45.9707438],[7.6305827,45.9707657],[7.6304124,45.970814],[7.6300619,45.9708972],[7.6296974,45.9709463],[7.6292819,45.9709717],[7.6290302,45.9709683],[7.6288279,45.970957],[7.6283368,45.9709165],[7.6275536,45.9709166],[7.6274385,45.970873],[7.6270642,45.970923],[7.6269185,45.9709688],[7.6266752,45.9709349],[7.6260714,45.9711412],[7.6257588,45.9712106],[7.6251878,45.9714024],[7.6246419,45.9714805],[7.6244899,45.971525],[7.6244618,45.9715008],[7.6240067,45.9715256],[7.6239032,45.9715062],[7.6233856,45.9715131],[7.6232443,45.9714859],[7.6228475,45.9715717],[7.622648,45.9715934],[7.6225016,45.9716508],[7.6222183,45.9716973],[7.6220557,45.9717516],[7.621749,45.9717746],[7.6214954,45.9718521],[7.6213078,45.9718803],[7.621157,45.9719427],[7.621026,45.9719421],[7.6207271,45.9720374],[7.6205711,45.9721746],[7.6202722,45.9722499],[7.6201099,45.9723236],[7.6199007,45.9722859],[7.6195817,45.972377],[7.619264,45.9723272],[7.6189891,45.9723549],[7.6188149,45.9723332],[7.61833,45.9719843],[7.6182655,45.9719685],[7.6178795,45.9717247],[7.6176829,45.9717828],[7.6175537,45.9717386],[7.6174188,45.9716401],[7.6173853,45.9715522],[7.6172683,45.9714729],[7.6173061,45.9713495],[7.6170762,45.9712782],[7.6168498,45.9713592],[7.6168065,45.9713984],[7.6166304,45.9713781],[7.6164428,45.9714386],[7.6162817,45.9714515],[7.6162223,45.9713597],[7.616151,45.9713874],[7.6160915,45.9713519],[7.6159871,45.9713801],[7.6159174,45.9713708],[7.6158853,45.9713994],[7.6155326,45.9714179],[7.6154112,45.9713942],[7.6152278,45.9714555],[7.6149293,45.9713847],[7.6146214,45.9711683],[7.6142886,45.9710643],[7.6140989,45.970921],[7.6138472,45.9708144],[7.6136279,45.9707571],[7.6135974,45.9707059],[7.6135267,45.9706687],[7.6134921,45.9705725],[7.6131533,45.9705358],[7.6127921,45.9705336],[7.6125227,45.9704543],[7.6123209,45.9704264],[7.6121906,45.970352],[7.6118112,45.9703164],[7.6116869,45.9702219],[7.6115846,45.9701897],[7.6114001,45.9700756],[7.6113414,45.9699791],[7.6110179,45.969911],[7.6109284,45.9697368],[7.6106786,45.9696118],[7.6105889,45.9696166],[7.6105389,45.9695372],[7.6104143,45.9694811],[7.6103477,45.9693447],[7.6095347,45.9693436],[7.6090285,45.969404],[7.608849,45.969389],[7.6086883,45.9694116]]}}]}