{
  "type": "FeatureCollection",
  "name": "Zermatt Rotweng 11 and Standard 7",
  "attribution": "\u00a9 OpenStreetMap contributors",
  "sourceUrl": "https://overpass-api.de/api/interpreter",
  "licenseUrl": "https://www.openstreetmap.org/copyright",
  "notes": "Two connected OSM piste centerlines. Rotweng 11 starts east of the Rothorn summit; no invented connector to the summit was added. Geometry is community-mapped and does not establish current piste opening or suitability. Coordinates are WGS84 longitude/latitude.",
  "features": [
    {
      "type": "Feature",
      "id": "way/22462841",
      "properties": {
        "name": "Rotweng",
        "piste:difficulty": "intermediate",
        "piste:type": "downhill",
        "ref": "11",
        "source": "OpenStreetMap contributors via Overpass API",
        "sourceUrl": "https://www.openstreetmap.org/way/22462841",
        "license": "ODbL 1.0",
        "licenseUrl": "https://www.openstreetmap.org/copyright",
        "osmTimestamp": "2026-09-08T18:32:16Z",
        "geometryStatus": "Actual OSM way geometry, unmodified; community-mapped, not surveyed or operationally verified"
      },
      "geometry": {
        "type": "LineString",
        "coordinates": [
          [
            7.8055036,
            46.0226845
          ],
          [
            7.8060333,
            46.0228359
          ],
          [
            7.8064685,
            46.0228828
          ],
          [
            7.8067887,
            46.0228297
          ],
          [
            7.8070023,
            46.0227324
          ],
          [
            7.8072373,
            46.0226162
          ],
          [
            7.8073547,
            46.0225238
          ],
          [
            7.8074648,
            46.0223762
          ],
          [
            7.8075871,
            46.0222774
          ],
          [
            7.807841,
            46.022184
          ],
          [
            7.8080035,
            46.0220909
          ],
          [
            7.8080918,
            46.0220119
          ],
          [
            7.8081069,
            46.0219008
          ],
          [
            7.8078349,
            46.0217953
          ],
          [
            7.8075443,
            46.0217146
          ],
          [
            7.8072548,
            46.0216673
          ],
          [
            7.8068255,
            46.0215553
          ],
          [
            7.8065319,
            46.0214512
          ],
          [
            7.8063088,
            46.0213453
          ],
          [
            7.8062036,
            46.0212118
          ],
          [
            7.8060945,
            46.0210116
          ],
          [
            7.8060843,
            46.0207974
          ],
          [
            7.8061679,
            46.0205889
          ],
          [
            7.8062131,
            46.0204126
          ],
          [
            7.806223,
            46.0202746
          ],
          [
            7.8062131,
            46.0201575
          ],
          [
            7.8060976,
            46.0198243
          ],
          [
            7.8059501,
            46.0194719
          ],
          [
            7.805774,
            46.019263
          ],
          [
            7.8056084,
            46.0191496
          ],
          [
            7.8053971,
            46.0190937
          ],
          [
            7.8049506,
            46.0189365
          ],
          [
            7.8046447,
            46.0188346
          ],
          [
            7.8041512,
            46.0186765
          ],
          [
            7.8039323,
            46.0185263
          ],
          [
            7.8037944,
            46.0183656
          ],
          [
            7.8037072,
            46.0181619
          ],
          [
            7.803455,
            46.0178875
          ],
          [
            7.8033009,
            46.0176121
          ],
          [
            7.8030285,
            46.017402
          ],
          [
            7.8027626,
            46.0172228
          ],
          [
            7.8024016,
            46.0170837
          ],
          [
            7.8010302,
            46.0167506
          ],
          [
            7.8007265,
            46.0165204
          ],
          [
            7.8002336,
            46.0163616
          ],
          [
            7.7993834,
            46.0162126
          ],
          [
            7.7985719,
            46.0163059
          ],
          [
            7.798106,
            46.0162778
          ],
          [
            7.7976721,
            46.0162826
          ],
          [
            7.7971768,
            46.016229
          ],
          [
            7.7953675,
            46.0163876
          ],
          [
            7.7940179,
            46.0164619
          ],
          [
            7.7930546,
            46.0164605
          ],
          [
            7.7925722,
            46.0164934
          ],
          [
            7.7915188,
            46.0166826
          ],
          [
            7.7908177,
            46.0169005
          ],
          [
            7.7903565,
            46.0170382
          ],
          [
            7.7899464,
            46.0171004
          ],
          [
            7.7891667,
            46.0170596
          ],
          [
            7.7886663,
            46.0169975
          ],
          [
            7.7880794,
            46.0170803
          ],
          [
            7.7868755,
            46.0172827
          ]
        ]
      }
    },
    {
      "type": "Feature",
      "id": "way/22462843",
      "properties": {
        "piste:difficulty": "easy",
        "piste:name": "Standard",
        "piste:type": "downhill",
        "ref": "7",
        "name": "Standard",
        "source": "OpenStreetMap contributors via Overpass API",
        "sourceUrl": "https://www.openstreetmap.org/way/22462843",
        "license": "ODbL 1.0",
        "licenseUrl": "https://www.openstreetmap.org/copyright",
        "osmTimestamp": "2026-09-08T18:32:16Z",
        "geometryStatus": "Actual OSM way geometry, unmodified; community-mapped, not surveyed or operationally verified"
      },
      "geometry": {
        "type": "LineString",
        "coordinates": [
          [
            7.7868755,
            46.0172827
          ],
          [
            7.7857196,
            46.0175611
          ],
          [
            7.7844655,
            46.0177433
          ],
          [
            7.7841318,
            46.0178416
          ],
          [
            7.7833983,
            46.0178703
          ],
          [
            7.7826632,
            46.0178478
          ],
          [
            7.7815963,
            46.0179608
          ],
          [
            7.7804702,
            46.0179333
          ],
          [
            7.7797969,
            46.0179276
          ],
          [
            7.7789153,
            46.0176329
          ],
          [
            7.7778642,
            46.0175819
          ],
          [
            7.7773358,
            46.0175436
          ],
          [
            7.7767976,
            46.0176026
          ],
          [
            7.7763263,
            46.0176844
          ],
          [
            7.7755172,
            46.0177441
          ],
          [
            7.7749324,
            46.017728
          ],
          [
            7.7744158,
            46.0177356
          ],
          [
            7.7735299,
            46.0176151
          ],
          [
            7.7725855,
            46.0175121
          ],
          [
            7.772163,
            46.0175744
          ],
          [
            7.7717832,
            46.017664
          ],
          [
            7.7714824,
            46.0176296
          ],
          [
            7.7709237,
            46.0172715
          ],
          [
            7.7708062,
            46.0170795
          ],
          [
            7.7703759,
            46.0169659
          ],
          [
            7.7696407,
            46.0167653
          ],
          [
            7.7693307,
            46.0171311
          ]
        ]
      }
    }
  ]
}