{
  "type": "FeatureCollection",
  "attribution": "\u00a9 OpenStreetMap contributors",
  "licenseUrl": "https://www.openstreetmap.org/copyright",
  "sourceEndpoint": "https://overpass.kumi.systems/api/interpreter",
  "notes": "Actual OSM geometry. Zmuttbach contains four segments. Preserve gap at reservoir between [7.7025855,46.0079392] and [7.7096643,46.0078701]; do not fabricate connecting centerline. Glacier polygon is the OSM feature named Zmuttgletscher, not necessarily the full scientific glacier catchment and not a current glacier boundary survey. Heights must come from terrain, not invented river elevations. Context includes real Stausee Zmutt reservoir polygon, real dam line, Matterhorn summit point and Tiefmattengletscher tributary polygon. Do not render a direct summit-to-glacier river. Stream geometry is downstream valley hydrography; glacier is a mapped area with no implied current boundary accuracy.",
  "features": [
    {
      "type": "Feature",
      "id": "way/32344679",
      "properties": {
        "name": "Zmuttgletscher",
        "natural": "glacier",
        "wikidata": "Q2604627",
        "source": "OpenStreetMap contributors",
        "sourceUrl": "https://www.openstreetmap.org/way/32344679",
        "osmTimestamp": "2026-05-31T22:37:44Z",
        "geometryStatus": "Unmodified community-mapped geometry; no height coordinates; not a current survey",
        "license": "ODbL 1.0"
      },
      "geometry": {
        "type": "Polygon",
        "coordinates": [
          [
            [
              7.6249193,
              45.9942558
            ],
            [
              7.6277017,
              45.9962452
            ],
            [
              7.6257754,
              45.9968244
            ],
            [
              7.6245976,
              45.9971786
            ],
            [
              7.6265716,
              45.9974384
            ],
            [
              7.626974,
              45.9975847
            ],
            [
              7.6284599,
              45.998125
            ],
            [
              7.6290286,
              45.9989553
            ],
            [
              7.6298332,
              45.9988212
            ],
            [
              7.6325797,
              45.999155
            ],
            [
              7.6354014,
              45.9994654
            ],
            [
              7.636646,
              46.0004725
            ],
            [
              7.6401328,
              46.0006999
            ],
            [
              7.644596,
              46.0014724
            ],
            [
              7.6480293,
              46.0020732
            ],
            [
              7.6494469,
              46.0020922
            ],
            [
              7.6504217,
              46.0015079
            ],
            [
              7.6501757,
              46.0005891
            ],
            [
              7.6513874,
              46.0004835
            ],
            [
              7.6535127,
              46.0006698
            ],
            [
              7.6539516,
              45.9994234
            ],
            [
              7.6545681,
              45.9988677
            ],
            [
              7.6558526,
              45.9990701
            ],
            [
              7.656715,
              45.9988048
            ],
            [
              7.6556604,
              45.9980615
            ],
            [
              7.653872,
              45.9973265
            ],
            [
              7.6514802,
              45.9965461
            ],
            [
              7.6498068,
              45.9960564
            ],
            [
              7.6473426,
              45.9947776
            ],
            [
              7.6449024,
              45.9945654
            ],
            [
              7.6433944,
              45.9944343
            ],
            [
              7.6393983,
              45.9949356
            ],
            [
              7.6367333,
              45.9938003
            ],
            [
              7.6353391,
              45.9930806
            ],
            [
              7.6321413,
              45.9915668
            ],
            [
              7.6306915,
              45.9921169
            ],
            [
              7.6263999,
              45.9937477
            ],
            [
              7.6249193,
              45.9942558
            ]
          ]
        ]
      }
    },
    {
      "type": "Feature",
      "id": "way/35329290",
      "properties": {
        "boat": "no",
        "name": "Zmuttbach",
        "waterway": "stream",
        "source": "OpenStreetMap contributors",
        "sourceUrl": "https://www.openstreetmap.org/way/35329290",
        "osmTimestamp": "2026-05-31T22:37:44Z",
        "geometryStatus": "Unmodified community-mapped geometry; no height coordinates; not a current survey",
        "license": "ODbL 1.0"
      },
      "geometry": {
        "type": "LineString",
        "coordinates": [
          [
            7.6673612,
            46.0043459
          ],
          [
            7.6675669,
            46.0042453
          ],
          [
            7.6676823,
            46.0041888
          ],
          [
            7.6692195,
            46.004379
          ],
          [
            7.6695153,
            46.0043189
          ],
          [
            7.6700697,
            46.0042063
          ],
          [
            7.6702152,
            46.0041767
          ],
          [
            7.6703622,
            46.0042076
          ],
          [
            7.6706286,
            46.0042636
          ],
          [
            7.671398,
            46.004396
          ],
          [
            7.6716355,
            46.0045429
          ],
          [
            7.6719029,
            46.0047407
          ],
          [
            7.6721251,
            46.0049309
          ],
          [
            7.6722893,
            46.0051354
          ],
          [
            7.6723952,
            46.0052611
          ],
          [
            7.6725178,
            46.0052809
          ],
          [
            7.6726343,
            46.0052998
          ],
          [
            7.6730645,
            46.0052591
          ],
          [
            7.6733496,
            46.0052322
          ],
          [
            7.6736272,
            46.0052687
          ],
          [
            7.6742085,
            46.0053455
          ],
          [
            7.6747077,
            46.0054832
          ],
          [
            7.6747497,
            46.0054949
          ],
          [
            7.6750742,
            46.0055229
          ],
          [
            7.6751611,
            46.0055237
          ],
          [
            7.6754658,
            46.0055266
          ],
          [
            7.6755634,
            46.0056185
          ],
          [
            7.675603,
            46.0056462
          ],
          [
            7.6760554,
            46.0057262
          ],
          [
            7.6765114,
            46.0056879
          ],
          [
            7.6769118,
            46.0057438
          ],
          [
            7.677205,
            46.0057996
          ],
          [
            7.6778664,
            46.0059049
          ],
          [
            7.6789913,
            46.005457
          ],
          [
            7.6797344,
            46.0055046
          ],
          [
            7.6800379,
            46.0052534
          ],
          [
            7.6804027,
            46.0053131
          ],
          [
            7.680828,
            46.0053827
          ],
          [
            7.6814139,
            46.005391
          ],
          [
            7.6819122,
            46.0053941
          ],
          [
            7.6823065,
            46.0056564
          ],
          [
            7.6824993,
            46.0061473
          ],
          [
            7.6832204,
            46.0066666
          ],
          [
            7.6842888,
            46.0068784
          ],
          [
            7.6853351,
            46.0067423
          ],
          [
            7.6865604,
            46.006886
          ],
          [
            7.6882546,
            46.0069456
          ],
          [
            7.6884597,
            46.0071259
          ],
          [
            7.6887498,
            46.0071403
          ],
          [
            7.6889237,
            46.0069799
          ],
          [
            7.6900598,
            46.0072197
          ],
          [
            7.6905092,
            46.007622
          ],
          [
            7.6923963,
            46.0077725
          ],
          [
            7.692949,
            46.0077063
          ],
          [
            7.6932053,
            46.0078558
          ],
          [
            7.694276,
            46.0078939
          ],
          [
            7.6954287,
            46.0079667
          ],
          [
            7.6963254,
            46.0077709
          ],
          [
            7.6969341,
            46.0080182
          ],
          [
            7.6974327,
            46.0080727
          ],
          [
            7.6978512,
            46.0084038
          ],
          [
            7.6990957,
            46.0084093
          ],
          [
            7.7004647,
            46.0082251
          ],
          [
            7.7016208,
            46.0080078
          ],
          [
            7.7021975,
            46.0078217
          ],
          [
            7.7025855,
            46.0079392
          ]
        ]
      }
    },
    {
      "type": "Feature",
      "id": "way/35329291",
      "properties": {
        "boat": "no",
        "name": "Zmuttbach",
        "source": "OpenStreetMap contributors",
        "waterway": "stream",
        "sourceUrl": "https://www.openstreetmap.org/way/35329291",
        "osmTimestamp": "2026-05-31T22:37:44Z",
        "geometryStatus": "Unmodified community-mapped geometry; no height coordinates; not a current survey",
        "license": "ODbL 1.0"
      },
      "geometry": {
        "type": "LineString",
        "coordinates": [
          [
            7.7096643,
            46.0078701
          ],
          [
            7.7101037,
            46.0077882
          ],
          [
            7.7106832,
            46.0078408
          ],
          [
            7.7110228,
            46.007739
          ],
          [
            7.7115724,
            46.0076416
          ],
          [
            7.7118311,
            46.0076878
          ],
          [
            7.7123825,
            46.0075441
          ],
          [
            7.7128231,
            46.0073892
          ],
          [
            7.7135036,
            46.0067935
          ],
          [
            7.7139994,
            46.0065174
          ],
          [
            7.7144885,
            46.0063467
          ],
          [
            7.7148019,
            46.0062177
          ],
          [
            7.7148363,
            46.0061573
          ],
          [
            7.7153292,
            46.0058855
          ],
          [
            7.715879,
            46.0059026
          ],
          [
            7.716361,
            46.0057654
          ],
          [
            7.7166613,
            46.0057259
          ],
          [
            7.7169224,
            46.0057922
          ],
          [
            7.7171224,
            46.0057442
          ],
          [
            7.7173745,
            46.0057753
          ],
          [
            7.7176244,
            46.0057468
          ],
          [
            7.7178268,
            46.0057965
          ],
          [
            7.7186483,
            46.005832
          ],
          [
            7.7194384,
            46.0056408
          ],
          [
            7.7198892,
            46.0054002
          ],
          [
            7.7207836,
            46.0053117
          ],
          [
            7.7214615,
            46.0049631
          ],
          [
            7.7222333,
            46.005001
          ],
          [
            7.7228477,
            46.0048648
          ],
          [
            7.7233278,
            46.0047651
          ],
          [
            7.7238145,
            46.0046292
          ],
          [
            7.7239926,
            46.004643
          ],
          [
            7.7244833,
            46.0047829
          ],
          [
            7.724676,
            46.0047731
          ],
          [
            7.7250724,
            46.0046479
          ],
          [
            7.7252439,
            46.0046847
          ],
          [
            7.7253703,
            46.0047596
          ],
          [
            7.7254728,
            46.0048896
          ],
          [
            7.7256827,
            46.0052705
          ],
          [
            7.7259185,
            46.0054654
          ],
          [
            7.7264209,
            46.0057025
          ],
          [
            7.7266439,
            46.0058111
          ],
          [
            7.7270154,
            46.0059062
          ],
          [
            7.7271022,
            46.0059457
          ],
          [
            7.7272258,
            46.0060695
          ],
          [
            7.7277609,
            46.0062974
          ],
          [
            7.7280156,
            46.0064342
          ],
          [
            7.7281744,
            46.0064709
          ],
          [
            7.7284602,
            46.0066212
          ],
          [
            7.7287192,
            46.0068266
          ],
          [
            7.7289436,
            46.0070385
          ],
          [
            7.729068,
            46.0070998
          ],
          [
            7.7295725,
            46.0072114
          ],
          [
            7.7297939,
            46.0072963
          ],
          [
            7.730693,
            46.0077471
          ],
          [
            7.7308722,
            46.0078899
          ],
          [
            7.7309599,
            46.0079319
          ],
          [
            7.7312639,
            46.0079983
          ],
          [
            7.7314711,
            46.0080981
          ],
          [
            7.7317276,
            46.0082988
          ],
          [
            7.73192,
            46.0086657
          ],
          [
            7.7321062,
            46.0088343
          ],
          [
            7.7323585,
            46.0089905
          ],
          [
            7.7325433,
            46.009028
          ],
          [
            7.7332355,
            46.009098
          ],
          [
            7.7336971,
            46.0092095
          ],
          [
            7.7343079,
            46.0094264
          ],
          [
            7.7344208,
            46.0095051
          ],
          [
            7.7345834,
            46.0097041
          ],
          [
            7.7349504,
            46.0099114
          ],
          [
            7.7350352,
            46.0099348
          ],
          [
            7.7352896,
            46.0099383
          ],
          [
            7.7354215,
            46.009965
          ],
          [
            7.7358546,
            46.0102016
          ],
          [
            7.7359746,
            46.0102435
          ],
          [
            7.7361544,
            46.0102776
          ],
          [
            7.7362104,
            46.0103115
          ],
          [
            7.7366765,
            46.0107929
          ],
          [
            7.7367534,
            46.0108509
          ],
          [
            7.7368018,
            46.010858
          ],
          [
            7.736862,
            46.0108479
          ],
          [
            7.7370224,
            46.0108385
          ],
          [
            7.7372054,
            46.0108408
          ],
          [
            7.7374285,
            46.0109233
          ],
          [
            7.7376456,
            46.0111084
          ],
          [
            7.7380455,
            46.0113026
          ],
          [
            7.738457,
            46.0112972
          ],
          [
            7.7390419,
            46.011163
          ],
          [
            7.7392031,
            46.0111436
          ],
          [
            7.7393023,
            46.011166
          ]
        ]
      }
    },
    {
      "type": "Feature",
      "id": "way/35329294",
      "properties": {
        "boat": "no",
        "name": "Zmuttbach",
        "waterway": "stream",
        "source": "OpenStreetMap contributors",
        "sourceUrl": "https://www.openstreetmap.org/way/35329294",
        "osmTimestamp": "2026-05-31T22:37:44Z",
        "geometryStatus": "Unmodified community-mapped geometry; no height coordinates; not a current survey",
        "license": "ODbL 1.0"
      },
      "geometry": {
        "type": "LineString",
        "coordinates": [
          [
            7.6501757,
            46.0005891
          ],
          [
            7.6513559,
            46.0013194
          ],
          [
            7.6525542,
            46.0016658
          ],
          [
            7.6535535,
            46.0020404
          ],
          [
            7.6553061,
            46.0026519
          ],
          [
            7.6573862,
            46.0030698
          ],
          [
            7.6581849,
            46.0032028
          ],
          [
            7.6583594,
            46.0032028
          ],
          [
            7.6599654,
            46.003588
          ],
          [
            7.6611356,
            46.0037766
          ],
          [
            7.6622905,
            46.0034673
          ],
          [
            7.6627771,
            46.0033369
          ],
          [
            7.6636338,
            46.0033501
          ]
        ]
      }
    },
    {
      "type": "Feature",
      "id": "way/35329295",
      "properties": {
        "boat": "no",
        "name": "Zmuttbach",
        "source": "OpenStreetMap contributors",
        "waterway": "stream",
        "sourceUrl": "https://www.openstreetmap.org/way/35329295",
        "osmTimestamp": "2026-05-31T22:37:44Z",
        "geometryStatus": "Unmodified community-mapped geometry; no height coordinates; not a current survey",
        "license": "ODbL 1.0"
      },
      "geometry": {
        "type": "LineString",
        "coordinates": [
          [
            7.6636338,
            46.0033501
          ],
          [
            7.6644192,
            46.0037702
          ],
          [
            7.6648465,
            46.0038016
          ],
          [
            7.6668862,
            46.0043728
          ],
          [
            7.6673612,
            46.0043459
          ]
        ]
      }
    },
    {
      "type": "Feature",
      "id": "node/26863664",
      "properties": {
        "alt:WGS84": "4532.90",
        "alt:m\u00fcm": "4477.50",
        "alt_name": "Cervino",
        "ele": "4478",
        "importance": "international",
        "name": "Matterhorn",
        "name:be": "\u041c\u0430\u0442\u044d\u0440\u0433\u043e\u0440\u043d",
        "name:bg": "\u041c\u0430\u0442\u0435\u0440\u0445\u043e\u0440\u043d",
        "name:de": "Matterhorn",
        "name:eo": "Materhorno",
        "name:es": "Cervino",
        "name:fr": "Cervin",
        "name:ga": "Sliabh Cervin",
        "name:he": "\u05de\u05b7\u05d8\u05b5\u05e8\u05b0\u05d4\u05d5\u05b9\u05e8\u05b0\u05df",
        "name:it": "Cervino",
        "name:ja": "\u30de\u30c3\u30bf\u30fc\u30db\u30eb\u30f3",
        "name:ko": "\ub9c8\ud130\ud638\ub978 \uc0b0",
        "name:lt": "Materhornas",
        "name:ru": "\u041c\u0430\u0442\u0442\u0435\u0440\u0445\u043e\u0440\u043d",
        "name:th": "\u0e22\u0e2d\u0e14\u0e40\u0e02\u0e32\u0e21\u0e31\u0e17\u0e40\u0e17\u0e2d\u0e23\u0e4c\u0e2e\u0e2d\u0e23\u0e4c\u0e19",
        "name:uk": "\u041c\u0430\u0442\u0435\u0440\u0433\u043e\u0440\u043d",
        "name:ur": "\u0645\u06cc\u0679\u0631\u06c1\u0627\u0631\u0646",
        "name:zh": "\u9a6c\u7279\u6d2a\u5cf0",
        "name:zh-Hant": "\u99ac\u7279\u6d2a\u5cf0",
        "natural": "peak",
        "prominence": "1038",
        "source:prominence": "4478-3440 (Col at the NE of Col d\u2019H\u00e9rens)",
        "wikidata": "Q1374",
        "wikipedia": "it:Cervino",
        "sourceUrl": "https://www.openstreetmap.org/node/26863664",
        "attribution": "\u00a9 OpenStreetMap contributors",
        "osmTimestamp": "2026-07-28T02:16:18Z"
      },
      "geometry": {
        "type": "Point",
        "coordinates": [
          7.6586024,
          45.9764263
        ]
      }
    },
    {
      "type": "Feature",
      "id": "way/32344672",
      "properties": {
        "name": "Tiefmattengletscher",
        "natural": "glacier",
        "wikidata": "Q64145010",
        "sourceUrl": "https://www.openstreetmap.org/way/32344672",
        "attribution": "\u00a9 OpenStreetMap contributors",
        "osmTimestamp": "2026-07-28T02:16:18Z"
      },
      "geometry": {
        "type": "Polygon",
        "coordinates": [
          [
            [
              7.5860595,
              45.9736633
            ],
            [
              7.5856383,
              45.974354
            ],
            [
              7.5853373,
              45.9752344
            ],
            [
              7.5855985,
              45.9758762
            ],
            [
              7.586104,
              45.9761772
            ],
            [
              7.5868089,
              45.9769772
            ],
            [
              7.5871661,
              45.9772336
            ],
            [
              7.5874785,
              45.9779038
            ],
            [
              7.5879499,
              45.9785286
            ],
            [
              7.5887327,
              45.9787486
            ],
            [
              7.589455,
              45.9787785
            ],
            [
              7.5897447,
              45.9786199
            ],
            [
              7.5901794,
              45.9793281
            ],
            [
              7.5904092,
              45.980153
            ],
            [
              7.591176,
              45.9804711
            ],
            [
              7.5917837,
              45.9803404
            ],
            [
              7.5922835,
              45.9805563
            ],
            [
              7.5928458,
              45.9809538
            ],
            [
              7.5934195,
              45.9809027
            ],
            [
              7.5941749,
              45.9812606
            ],
            [
              7.5949587,
              45.9817376
            ],
            [
              7.595397,
              45.9816743
            ],
            [
              7.595522,
              45.9818509
            ],
            [
              7.5954926,
              45.9822715
            ],
            [
              7.5943169,
              45.9832598
            ],
            [
              7.594084,
              45.9834756
            ],
            [
              7.5944078,
              45.9839811
            ],
            [
              7.5944702,
              45.9847763
            ],
            [
              7.5949859,
              45.9848213
            ],
            [
              7.5956285,
              45.9853437
            ],
            [
              7.5964182,
              45.9864752
            ],
            [
              7.5993011,
              45.9879372
            ],
            [
              7.5993299,
              45.9879925
            ],
            [
              7.6005363,
              45.9884585
            ],
            [
              7.6033376,
              45.9893914
            ],
            [
              7.6050984,
              45.9904123
            ],
            [
              7.6073195,
              45.9904306
            ],
            [
              7.6088288,
              45.9903041
            ],
            [
              7.6097201,
              45.9901019
            ],
            [
              7.6101972,
              45.9899166
            ],
            [
              7.6107309,
              45.989473
            ],
            [
              7.6101234,
              45.989246
            ],
            [
              7.6096727,
              45.9891245
            ],
            [
              7.6076888,
              45.9891986
            ],
            [
              7.6065278,
              45.989124
            ],
            [
              7.6059722,
              45.9888553
            ],
            [
              7.6064872,
              45.9875678
            ],
            [
              7.6063622,
              45.9870949
            ],
            [
              7.6061439,
              45.9857654
            ],
            [
              7.6068957,
              45.9852785
            ],
            [
              7.6090621,
              45.9858512
            ],
            [
              7.6091504,
              45.9858836
            ],
            [
              7.611637,
              45.9867954
            ],
            [
              7.6143836,
              45.9875678
            ],
            [
              7.6167869,
              45.9889411
            ],
            [
              7.6173754,
              45.9893048
            ],
            [
              7.6184754,
              45.9899847
            ],
            [
              7.6209121,
              45.9912368
            ],
            [
              7.6241955,
              45.993091
            ],
            [
              7.6249193,
              45.9942558
            ],
            [
              7.6263999,
              45.9937477
            ],
            [
              7.6306915,
              45.9921169
            ],
            [
              7.6321413,
              45.9915668
            ],
            [
              7.6299805,
              45.990053
            ],
            [
              7.6288935,
              45.9889727
            ],
            [
              7.6288454,
              45.9880095
            ],
            [
              7.6282264,
              45.9877969
            ],
            [
              7.6273136,
              45.9874835
            ],
            [
              7.6270746,
              45.9874014
            ],
            [
              7.6245774,
              45.9872361
            ],
            [
              7.6236412,
              45.9869045
            ],
            [
              7.6234526,
              45.9865127
            ],
            [
              7.6236966,
              45.9864706
            ],
            [
              7.6253686,
              45.9869047
            ],
            [
              7.6265353,
              45.9866303
            ],
            [
              7.6269692,
              45.98666
            ],
            [
              7.6275137,
              45.9866973
            ],
            [
              7.6290133,
              45.9852628
            ],
            [
              7.6285683,
              45.9830691
            ],
            [
              7.6290524,
              45.9828491
            ],
            [
              7.6300692,
              45.983893
            ],
            [
              7.6296962,
              45.9844998
            ],
            [
              7.6302729,
              45.9846285
            ],
            [
              7.6306691,
              45.9846453
            ],
            [
              7.629367,
              45.9873886
            ],
            [
              7.6292205,
              45.9876974
            ],
            [
              7.6313665,
              45.9876231
            ],
            [
              7.6326536,
              45.987484
            ],
            [
              7.6330947,
              45.9870529
            ],
            [
              7.6337814,
              45.9857654
            ],
            [
              7.636559,
              45.9843524
            ],
            [
              7.6383161,
              45.9833814
            ],
            [
              7.6391918,
              45.9830337
            ],
            [
              7.6403542,
              45.9822418
            ],
            [
              7.6414638,
              45.9819228
            ],
            [
              7.6420264,
              45.9818086
            ],
            [
              7.6427384,
              45.9815672
            ],
            [
              7.6437306,
              45.9813051
            ],
            [
              7.6442019,
              45.9806877
            ],
            [
              7.6437377,
              45.9801006
            ],
            [
              7.643974,
              45.9787218
            ],
            [
              7.644485,
              45.9780063
            ],
            [
              7.6444244,
              45.9767532
            ],
            [
              7.6435167,
              45.9747862
            ],
            [
              7.6409911,
              45.9737491
            ],
            [
              7.6384762,
              45.9739131
            ],
            [
              7.6364269,
              45.9729373
            ],
            [
              7.6345542,
              45.9729423
            ],
            [
              7.6329866,
              45.9736654
            ],
            [
              7.6315932,
              45.9741079
            ],
            [
              7.6310676,
              45.9730428
            ],
            [
              7.6330315,
              45.9716069
            ],
            [
              7.6334412,
              45.9707286
            ],
            [
              7.6318866,
              45.9708743
            ],
            [
              7.6287525,
              45.971333
            ],
            [
              7.6266396,
              45.9724141
            ],
            [
              7.6256222,
              45.9732326
            ],
            [
              7.6273324,
              45.9739092
            ],
            [
              7.6283764,
              45.9751828
            ],
            [
              7.6289739,
              45.9754126
            ],
            [
              7.6288726,
              45.9746711
            ],
            [
              7.6285025,
              45.9730815
            ],
            [
              7.6296056,
              45.9736579
            ],
            [
              7.6306409,
              45.9744168
            ],
            [
              7.6308631,
              45.9774398
            ],
            [
              7.6311205,
              45.9779111
            ],
            [
              7.6296215,
              45.9783677
            ],
            [
              7.6288032,
              45.977869
            ],
            [
              7.6271995,
              45.9781937
            ],
            [
              7.6263999,
              45.9777831
            ],
            [
              7.6256667,
              45.9765407
            ],
            [
              7.6253352,
              45.9756571
            ],
            [
              7.6247569,
              45.975379
            ],
            [
              7.6243764,
              45.9765863
            ],
            [
              7.6233969,
              45.9772509
            ],
            [
              7.6210232,
              45.9778762
            ],
            [
              7.6183318,
              45.977354
            ],
            [
              7.6163989,
              45.9778369
            ],
            [
              7.6144212,
              45.9791365
            ],
            [
              7.6123072,
              45.979127
            ],
            [
              7.6111709,
              45.9798116
            ],
            [
              7.60997,
              45.9800781
            ],
            [
              7.6092338,
              45.9804439
            ],
            [
              7.6088161,
              45.9807934
            ],
            [
              7.6081261,
              45.9809829
            ],
            [
              7.6073195,
              45.9809583
            ],
            [
              7.6068227,
              45.9812524
            ],
            [
              7.6060632,
              45.9812745
            ],
            [
              7.6052226,
              45.9809414
            ],
            [
              7.6051621,
              45.9805878
            ],
            [
              7.6051411,
              45.9798663
            ],
            [
              7.6049422,
              45.9794998
            ],
            [
              7.6044405,
              45.9788552
            ],
            [
              7.6039622,
              45.9783056
            ],
            [
              7.6025778,
              45.9780917
            ],
            [
              7.601107,
              45.9785055
            ],
            [
              7.6004466,
              45.978184
            ],
            [
              7.5990919,
              45.9782274
            ],
            [
              7.597598,
              45.9783853
            ],
            [
              7.5968742,
              45.9779548
            ],
            [
              7.5984191,
              45.9770965
            ],
            [
              7.5999641,
              45.9758949
            ],
            [
              7.599774,
              45.9755011
            ],
            [
              7.5999595,
              45.9752592
            ],
            [
              7.5999931,
              45.9748372
            ],
            [
              7.6003245,
              45.97473
            ],
            [
              7.6011547,
              45.974759
            ],
            [
              7.6017235,
              45.9746662
            ],
            [
              7.6033547,
              45.9745675
            ],
            [
              7.6040339,
              45.9743585
            ],
            [
              7.60479,
              45.9746408
            ],
            [
              7.6050879,
              45.975118
            ],
            [
              7.6054781,
              45.9753572
            ],
            [
              7.6058482,
              45.9755655
            ],
            [
              7.6050837,
              45.9760116
            ],
            [
              7.6058161,
              45.9763645
            ],
            [
              7.6061342,
              45.9768145
            ],
            [
              7.6064975,
              45.9768633
            ],
            [
              7.6070597,
              45.9763137
            ],
            [
              7.6072149,
              45.9760662
            ],
            [
              7.6071142,
              45.9753446
            ],
            [
              7.6065395,
              45.9752187
            ],
            [
              7.6059716,
              45.9749332
            ],
            [
              7.606271,
              45.9745265
            ],
            [
              7.6064891,
              45.9739979
            ],
            [
              7.6059353,
              45.9739056
            ],
            [
              7.6061535,
              45.9736423
            ],
            [
              7.6067576,
              45.9733025
            ],
            [
              7.6072499,
              45.9727854
            ],
            [
              7.6076764,
              45.9725516
            ],
            [
              7.607819,
              45.9731599
            ],
            [
              7.6081127,
              45.9733361
            ],
            [
              7.6087755,
              45.9729921
            ],
            [
              7.6092706,
              45.9727907
            ],
            [
              7.6099964,
              45.9724173
            ],
            [
              7.6108606,
              45.9723544
            ],
            [
              7.6118926,
              45.9721111
            ],
            [
              7.6123247,
              45.9724467
            ],
            [
              7.6131302,
              45.9724341
            ],
            [
              7.6132645,
              45.972153
            ],
            [
              7.61334,
              45.971788
            ],
            [
              7.6131889,
              45.9713895
            ],
            [
              7.6127149,
              45.9710161
            ],
            [
              7.6120352,
              45.970714
            ],
            [
              7.6116954,
              45.9703616
            ],
            [
              7.6110567,
              45.9702233
            ],
            [
              7.6104795,
              45.9697854
            ],
            [
              7.6093745,
              45.9696042
            ],
            [
              7.6079639,
              45.9695404
            ],
            [
              7.607099,
              45.9699467
            ],
            [
              7.6064778,
              45.9703879
            ],
            [
              7.6061063,
              45.9713922
            ],
            [
              7.6052878,
              45.9724138
            ],
            [
              7.6043365,
              45.9730141
            ],
            [
              7.6038452,
              45.9723063
            ],
            [
              7.6032045,
              45.972297
            ],
            [
              7.6022883,
              45.9727197
            ],
            [
              7.6018219,
              45.9730254
            ],
            [
              7.6018032,
              45.9736211
            ],
            [
              7.5998146,
              45.9742788
            ],
            [
              7.5995192,
              45.9747964
            ],
            [
              7.5996482,
              45.9752469
            ],
            [
              7.5993662,
              45.975331
            ],
            [
              7.5987688,
              45.9751596
            ],
            [
              7.5968436,
              45.9752179
            ],
            [
              7.5965242,
              45.9751505
            ],
            [
              7.5963386,
              45.9750259
            ],
            [
              7.5964868,
              45.9744572
            ],
            [
              7.5963419,
              45.9741604
            ],
            [
              7.5953255,
              45.9739118
            ],
            [
              7.5944584,
              45.9741961
            ],
            [
              7.5933231,
              45.9739011
            ],
            [
              7.5922924,
              45.9733387
            ],
            [
              7.5922393,
              45.9731483
            ],
            [
              7.592783,
              45.9728506
            ],
            [
              7.5933781,
              45.9727746
            ],
            [
              7.5939729,
              45.9728296
            ],
            [
              7.5942285,
              45.9725278
            ],
            [
              7.5954103,
              45.9725337
            ],
            [
              7.5964947,
              45.9724132
            ],
            [
              7.5976763,
              45.972545
            ],
            [
              7.5986634,
              45.9723168
            ],
            [
              7.5990696,
              45.9719318
            ],
            [
              7.599867,
              45.9717399
            ],
            [
              7.6007598,
              45.9714573
            ],
            [
              7.6013174,
              45.9714509
            ],
            [
              7.6018603,
              45.9709433
            ],
            [
              7.6024627,
              45.9708469
            ],
            [
              7.6028,
              45.970381
            ],
            [
              7.6026474,
              45.97014
            ],
            [
              7.6025415,
              45.9701333
            ],
            [
              7.6009928,
              45.9700356
            ],
            [
              7.5998522,
              45.9700918
            ],
            [
              7.5986232,
              45.9703569
            ],
            [
              7.5984376,
              45.9703926
            ],
            [
              7.5969525,
              45.9706782
            ],
            [
              7.5957075,
              45.970879
            ],
            [
              7.5943614,
              45.9712388
            ],
            [
              7.5940475,
              45.9716514
            ],
            [
              7.5927045,
              45.971928
            ],
            [
              7.5917,
              45.9718451
            ],
            [
              7.5906101,
              45.9721404
            ],
            [
              7.5900605,
              45.9720723
            ],
            [
              7.589305,
              45.9720329
            ],
            [
              7.5879132,
              45.972243
            ],
            [
              7.5869201,
              45.9728148
            ],
            [
              7.5860595,
              45.9736633
            ]
          ]
        ]
      }
    },
    {
      "type": "Feature",
      "id": "way/35329288",
      "properties": {
        "name": "Stausee Zmutt",
        "natural": "water",
        "water": "lake",
        "sourceUrl": "https://www.openstreetmap.org/way/35329288",
        "attribution": "\u00a9 OpenStreetMap contributors",
        "osmTimestamp": "2026-07-28T02:16:18Z"
      },
      "geometry": {
        "type": "Polygon",
        "coordinates": [
          [
            [
              7.7025855,
              46.0079392
            ],
            [
              7.7027857,
              46.0079926
            ],
            [
              7.703211,
              46.008106
            ],
            [
              7.7033434,
              46.0082382
            ],
            [
              7.7036636,
              46.0083264
            ],
            [
              7.7037124,
              46.0084461
            ],
            [
              7.7041058,
              46.0085071
            ],
            [
              7.7043725,
              46.0085244
            ],
            [
              7.7046511,
              46.0086683
            ],
            [
              7.7054752,
              46.0086098
            ],
            [
              7.7058693,
              46.0084294
            ],
            [
              7.7063328,
              46.0082043
            ],
            [
              7.7064501,
              46.0081186
            ],
            [
              7.7064901,
              46.0079317
            ],
            [
              7.7067521,
              46.0078187
            ],
            [
              7.7071658,
              46.0079012
            ],
            [
              7.7072512,
              46.0081175
            ],
            [
              7.7078791,
              46.0083321
            ],
            [
              7.7082722,
              46.008395
            ],
            [
              7.7083549,
              46.0084366
            ],
            [
              7.7084233,
              46.0084506
            ],
            [
              7.7084479,
              46.0084419
            ],
            [
              7.7085239,
              46.0084152
            ],
            [
              7.7086942,
              46.0083826
            ],
            [
              7.7089174,
              46.0084428
            ],
            [
              7.7090362,
              46.0083714
            ],
            [
              7.7091864,
              46.0083211
            ],
            [
              7.7093393,
              46.0083248
            ],
            [
              7.7096411,
              46.008229
            ],
            [
              7.7098563,
              46.0082066
            ],
            [
              7.7097462,
              46.0081049
            ],
            [
              7.7096793,
              46.0080178
            ],
            [
              7.7096337,
              46.0079489
            ],
            [
              7.7096136,
              46.0078812
            ],
            [
              7.7096001,
              46.0077992
            ],
            [
              7.7096073,
              46.0077451
            ],
            [
              7.7096217,
              46.0076662
            ],
            [
              7.7096733,
              46.0075645
            ],
            [
              7.7097081,
              46.0075131
            ],
            [
              7.7096781,
              46.0074222
            ],
            [
              7.709394,
              46.0074317
            ],
            [
              7.7092433,
              46.0075294
            ],
            [
              7.7086842,
              46.0074607
            ],
            [
              7.7082964,
              46.0073551
            ],
            [
              7.7081631,
              46.007323
            ],
            [
              7.7078984,
              46.0072594
            ],
            [
              7.7075325,
              46.0072881
            ],
            [
              7.7073995,
              46.0072382
            ],
            [
              7.7071133,
              46.0073436
            ],
            [
              7.7063759,
              46.0073199
            ],
            [
              7.7062336,
              46.007403
            ],
            [
              7.7061288,
              46.0075888
            ],
            [
              7.7061978,
              46.0077286
            ],
            [
              7.706063,
              46.0078715
            ],
            [
              7.7057932,
              46.0078124
            ],
            [
              7.7056903,
              46.0079681
            ],
            [
              7.705671,
              46.0081692
            ],
            [
              7.7055111,
              46.0081344
            ],
            [
              7.7053263,
              46.0081864
            ],
            [
              7.7051443,
              46.0081692
            ],
            [
              7.7050257,
              46.0083148
            ],
            [
              7.704794,
              46.0082956
            ],
            [
              7.7045218,
              46.0081367
            ],
            [
              7.7042001,
              46.0081888
            ],
            [
              7.7039238,
              46.0081732
            ],
            [
              7.703644,
              46.0081041
            ],
            [
              7.703433,
              46.0079951
            ],
            [
              7.7032237,
              46.0079353
            ],
            [
              7.7028167,
              46.0078857
            ],
            [
              7.7025855,
              46.0079392
            ]
          ]
        ]
      }
    },
    {
      "type": "Feature",
      "id": "way/59062347",
      "properties": {
        "layer": "1",
        "waterway": "dam",
        "sourceUrl": "https://www.openstreetmap.org/way/59062347",
        "attribution": "\u00a9 OpenStreetMap contributors",
        "osmTimestamp": "2026-07-28T02:16:18Z"
      },
      "geometry": {
        "type": "LineString",
        "coordinates": [
          [
            7.710144,
            46.0082938
          ],
          [
            7.7100242,
            46.008311
          ],
          [
            7.7099243,
            46.0082495
          ],
          [
            7.7098563,
            46.0082066
          ],
          [
            7.7097462,
            46.0081049
          ],
          [
            7.7096793,
            46.0080178
          ],
          [
            7.7096337,
            46.0079489
          ],
          [
            7.7096136,
            46.0078812
          ],
          [
            7.7096001,
            46.0077992
          ],
          [
            7.7096073,
            46.0077451
          ],
          [
            7.7096217,
            46.0076662
          ],
          [
            7.7096733,
            46.0075645
          ],
          [
            7.7097081,
            46.0075131
          ],
          [
            7.7097543,
            46.0074487
          ]
        ]
      }
    }
  ],
  "retrievedAtUtc": "2026-09-08T22:39:52.555038+00:00",
  "primaryNarrativeSources": [
    {
      "url": "https://tc.copernicus.org/articles/13/1889/2019/",
      "title": "M\u00f6lg et al. (2019), Unravelling the evolution of Zmuttgletscher and its debris cover since the end of the Little Ice Age",
      "supports": "Glacier lies north of Matterhorn; Tiefmattengletscher tributary below Matterhorn west face; debris-covered lower tongue. Historic study, not current glacier state."
    },
    {
      "url": "https://zermatt.swiss/en/p/zmutt-dam-01tVj000005DmWzIAK",
      "title": "Zermatt Tourism \u2014 Zmutt dam",
      "supports": "Arch dam retains Zmutt Glacier and Zmuttbach water; built 1961\u20131964; 74 m high."
    },
    {
      "url": "https://www.grande-dixence.ch/de/anlagen/pumpstationen/z-mutt-113/",
      "title": "Grande Dixence \u2014 Z\u2019Mutt pumping station",
      "supports": "Hydropower storage and pumping; water is lifted into Trift tunnel at 2400 m."
    }
  ],
  "baseStreamSnapshot": "2026-05-31T22:37:44Z",
  "snapshotNote": "Individual feature metadata retains the provider snapshot for each retrieval; additional reservoir and dam features may have later snapshots."
}